{"type":"FeatureCollection","metadata":{"name":"Bordeaux display with low-zoom outer-hull trial","source":"public/data/bordeaux-display-exclusive-2026.geojson","note":"Trial layer. Selected AOCs are replaced by filled, non-overlapping concave outer hulls for low-zoom display; all other features remain from the exclusive display layer.","priority":[["medoc",1],["haut-medoc",2],["saint-estephe",3],["pauillac",3],["saint-julien",3],["margaux",3],["moulis-en-medoc",3],["listrac-medoc",3],["entre-deux-mers",1],["premieres-cotes-de-bordeaux",2],["cotes-de-bordeaux-cadillac",2],["cotes-de-bordeaux-saint-macaire",2],["graves-de-vayres",2],["entre-deux-mers-haut-benauge",3],["cadillac",3],["loupiac",3],["sainte-croix-du-mont",3]],"hullTargetIds":["medoc","haut-medoc","saint-estephe","pauillac","saint-julien","margaux","moulis-en-medoc","listrac-medoc","entre-deux-mers","entre-deux-mers-haut-benauge","cadillac","cotes-de-bordeaux-cadillac","loupiac","sainte-croix-du-mont","premieres-cotes-de-bordeaux","cotes-de-bordeaux-saint-macaire","graves-de-vayres"],"overlapCutCount":20,"overlapFallbackCount":1,"omittedSatelliteFeatureCount":30},"features":[{"type":"Feature","properties":{"id":"sainte-croix-du-mont","name":"Sainte-Croix-du-Mont","sourceApp":"Sainte-Croix-du-Mont","sourceDenom":"Sainte-Croix-du-Mont","sign":"AOC","typeProd":"Vins","category":"Vin de triees successives","insee":"33392","commune":"SAINTE-CROIX-DU-MONT","idApp":72,"idDenom":169,"idAire":130,"dataStatus":"Official INAO/data.gouv.fr parcel delimitation extract, informational use; official plans remain those deposited with town halls or INAO.","displayStatus":"Trial display feature: AOC features replaced by one filled concave outer hull for low-zoom display.","sourceFeatureId":"sainte-croix-du-mont-2366","concaveMaxEdgeKilometers":2.4,"hullPointCount":3575,"sourceFeatureCount":4,"hullSourceFeatureCount":4},"geometry":{"type":"Polygon","coordinates":[[[-0.2940273,44.6034553],[-0.294058,44.6036106],[-0.2897597,44.6068977],[-0.2890116,44.607339],[-0.2884053,44.6076931],[-0.2883537,44.6077208],[-0.2852447,44.6085801],[-0.2784297,44.6093276],[-0.2729311,44.609152],[-0.2477073,44.6120174],[-0.2458011,44.6122626],[-0.2455618,44.6122685],[-0.2453576,44.612273],[-0.243476,44.612148],[-0.242713,44.6083404],[-0.2427044,44.6082887],[-0.2426998,44.6081682],[-0.2428003,44.6075649],[-0.2428287,44.6074388],[-0.2428404,44.6073943],[-0.2430438,44.606789],[-0.2430938,44.6066474],[-0.2432281,44.6062966],[-0.243288,44.6061406],[-0.2437383,44.6050827],[-0.2437666,44.6050305],[-0.2438171,44.6049478],[-0.2442459,44.6042701],[-0.2443563,44.6041056],[-0.2446876,44.6036184],[-0.2448151,44.6034342],[-0.244981,44.6031953],[-0.2452737,44.6027822],[-0.2453471,44.6026806],[-0.2536929,44.5909971],[-0.2537141,44.5909689],[-0.2537484,44.5909248],[-0.2537984,44.5908754],[-0.2538633,44.590818],[-0.2539437,44.5907627],[-0.263816,44.5838861],[-0.2638094,44.5838932],[-0.2638149,44.5838873],[-0.263816,44.5838861],[-0.2638174,44.5838852],[-0.2638246,44.5838805],[-0.263816,44.5838861],[-0.264009,44.58376],[-0.2640274,44.5837515],[-0.2640561,44.5837436],[-0.2641579,44.5837172],[-0.2644324,44.5836543],[-0.2645774,44.5836223],[-0.2645971,44.5836182],[-0.2646154,44.5836154],[-0.2646357,44.5836132],[-0.2651208,44.5835631],[-0.269989,44.5847685],[-0.2700667,44.5847888],[-0.2701106,44.5848012],[-0.2701877,44.5848262],[-0.2706376,44.5849784],[-0.2711064,44.5851389],[-0.2740226,44.5861442],[-0.2744694,44.5862999],[-0.279666,44.5883328],[-0.2799381,44.5884392],[-0.2832437,44.5900503],[-0.2832998,44.5900802],[-0.2833577,44.5901213],[-0.2834056,44.5901602],[-0.283432,44.5901834],[-0.2866065,44.5934083],[-0.2891593,44.5961816],[-0.2931446,44.6012759],[-0.2931728,44.6013117],[-0.2931914,44.6013374],[-0.2932142,44.6013728],[-0.2932939,44.6015062],[-0.2933516,44.6016334],[-0.293364,44.6016628],[-0.2937515,44.6025812],[-0.2938152,44.6027378],[-0.2938894,44.6029546],[-0.2939496,44.603145],[-0.2940273,44.6034553]]]},"id":"sainte-croix-du-mont"},{"type":"Feature","properties":{"id":"loupiac","name":"Loupiac","sourceApp":"Loupiac","sourceDenom":"Loupiac","sign":"AOC","typeProd":"Vins","category":"Vin de triees successives","insee":"33253","commune":"LOUPIAC","idApp":46,"idDenom":105,"idAire":107,"dataStatus":"Official INAO/data.gouv.fr parcel delimitation extract, informational use; official plans remain those deposited with town halls or INAO.","displayStatus":"Trial display feature: AOC features replaced by one filled concave outer hull for low-zoom display.","sourceFeatureId":"loupiac-1611","concaveMaxEdgeKilometers":2.4,"hullPointCount":3549,"sourceFeatureCount":8,"hullSourceFeatureCount":8,"overlapStatus":"Low-zoom hull overlap removed; higher-priority or smaller same-priority hull kept the shared area."},"geometry":{"type":"Polygon","coordinates":[[[-0.3069681,44.6292947],[-0.3069121,44.6289074],[-0.3065086,44.6277111],[-0.3003691,44.6125329],[-0.3003026,44.6123635],[-0.300152,44.6120034],[-0.2996986,44.6112432],[-0.2996853,44.6112232],[-0.2985914,44.6097257],[-0.294057808247253,44.603609629993436],[-0.294058,44.6036106],[-0.29405737037543395,44.60361108150173],[-0.2940576,44.603612],[-0.2940573274789464,44.603611114306574],[-0.2897597,44.6068977],[-0.2890116,44.607339],[-0.2884053,44.6076931],[-0.2883537,44.6077208],[-0.2852447,44.6085801],[-0.2848017575574046,44.608628683928956],[-0.2838066,44.6101212],[-0.283002,44.6114184],[-0.2787207,44.6214606],[-0.2626264,44.6388316],[-0.260223,44.6408393],[-0.2590155,44.6427814],[-0.2594886,44.6431606],[-0.2598432,44.6434433],[-0.2601614,44.6436968],[-0.2643853,44.6458463],[-0.2705479,44.6476677],[-0.2742438,44.6487155],[-0.288216,44.6482646],[-0.2888165,44.6481173],[-0.3051867,44.6307699],[-0.3069681,44.6292947]]]},"id":"loupiac"},{"type":"Feature","properties":{"id":"saint-julien","name":"Saint-Julien","sourceApp":"Saint-Julien","sourceDenom":"Saint-Julien","sign":"AOC","typeProd":"Vins","category":"Vin tranquille","insee":"33146","commune":"CUSSAC-FORT-MEDOC","idApp":71,"idDenom":168,"idAire":129,"dataStatus":"Official INAO/data.gouv.fr parcel delimitation extract, informational use; official plans remain those deposited with town halls or INAO.","displayStatus":"Trial display feature: AOC features replaced by one filled concave outer hull for low-zoom display.","sourceFeatureId":"saint-julien-2374","concaveMaxEdgeKilometers":2.4,"hullPointCount":1693,"sourceFeatureCount":11,"hullSourceFeatureCount":1},"geometry":{"type":"Polygon","coordinates":[[[-0.7498054,45.1421687],[-0.7501055,45.1421589],[-0.7669992,45.141661],[-0.7676603,45.1416728],[-0.7681594,45.1416968],[-0.768624,45.1417581],[-0.7742711,45.1425815],[-0.7745309,45.1426481],[-0.7746021,45.1426665],[-0.7747421,45.1427034],[-0.7748575,45.1427934],[-0.7749731,45.1429037],[-0.7750706,45.1430287],[-0.7841775,45.1567204],[-0.7846519,45.1575499],[-0.7852359,45.1588408],[-0.7850017,45.1646486],[-0.7847899,45.1647559],[-0.7838701,45.1652065],[-0.7808314,45.1667082],[-0.7801798,45.1669425],[-0.779165,45.167306],[-0.7640443,45.1717911],[-0.7637913,45.1718659],[-0.7636318,45.1718983],[-0.7635615,45.1719106],[-0.7437412,45.1741984],[-0.7432048,45.1742614],[-0.7416824,45.1743258],[-0.7414798,45.1743315],[-0.741335,45.174322],[-0.741182,45.1742977],[-0.7401609,45.1740136],[-0.7374829,45.169021],[-0.7370358,45.1679337],[-0.7307988,45.1505814],[-0.7307949,45.150082],[-0.7321857,45.146402],[-0.732234,45.146308],[-0.7323083,45.1461959],[-0.7345617,45.143721],[-0.7352208,45.1434798],[-0.7362612,45.143107],[-0.7490134,45.1422051],[-0.7493687,45.1421869],[-0.7498054,45.1421687]]]},"id":"saint-julien"},{"type":"Feature","properties":{"id":"moulis-en-medoc","name":"Moulis-en-Médoc","sourceApp":"Moulis ou Moulis-en-Médoc","sourceDenom":"Moulis ou Moulis-en-Médoc","sign":"AOC","typeProd":"Vins","category":"Vin tranquille","insee":"33104","commune":"CASTELNAU-DE-MEDOC","idApp":57,"idDenom":116,"idAire":117,"dataStatus":"Official INAO/data.gouv.fr parcel delimitation extract, informational use; official plans remain those deposited with town halls or INAO.","displayStatus":"Trial display feature: AOC features replaced by one filled concave outer hull for low-zoom display.","sourceFeatureId":"moulis-en-medoc-2030","concaveMaxEdgeKilometers":2.4,"hullPointCount":4622,"sourceFeatureCount":17,"hullSourceFeatureCount":17},"geometry":{"type":"Polygon","coordinates":[[[-0.7686352,45.080125],[-0.7495877,45.0905278],[-0.7493288,45.090596],[-0.7460051,45.0912658],[-0.7452377,45.0914137],[-0.7444286,45.0915703],[-0.7437132,45.0916969],[-0.7425071,45.0919065],[-0.7411076,45.0921471],[-0.740865,45.0921786],[-0.7406436,45.0922011],[-0.7384334,45.0923594],[-0.7341259,45.0890962],[-0.7337545,45.085748],[-0.7332752,45.0735362],[-0.7332868,45.0734933],[-0.7333112,45.073407],[-0.7362326,45.0681467],[-0.7405007,45.0612018],[-0.7405353,45.0611494],[-0.7406103,45.0610725],[-0.7406741,45.0610217],[-0.7408295,45.0609099],[-0.7423468,45.0599605],[-0.7426052,45.059826],[-0.7574809,45.0529292],[-0.7754549,45.0444687],[-0.7869994,45.0393052],[-0.8018715,45.0380319],[-0.8280156,45.0295796],[-0.8283258,45.0295717],[-0.8288484,45.0295615],[-0.8293245,45.0295531],[-0.8295698,45.0295488],[-0.8298269,45.0295606],[-0.8305821,45.0302023],[-0.8307999,45.0317294],[-0.8102691,45.0457986],[-0.80183,45.0517109],[-0.792854,45.0578166],[-0.7849896,45.063443],[-0.7686352,45.080125]]]},"id":"moulis-en-medoc"},{"type":"Feature","properties":{"id":"pauillac","name":"Pauillac","sourceApp":"Pauillac","sourceDenom":"Pauillac","sign":"AOC","typeProd":"Vins","category":"Vin tranquille","insee":"33314","commune":"PAUILLAC","idApp":59,"idDenom":118,"idAire":118,"dataStatus":"Official INAO/data.gouv.fr parcel delimitation extract, informational use; official plans remain those deposited with town halls or INAO.","displayStatus":"Trial display feature: AOC features replaced by one filled concave outer hull for low-zoom display.","sourceFeatureId":"pauillac-2047","concaveMaxEdgeKilometers":2.4,"hullPointCount":2257,"sourceFeatureCount":23,"hullSourceFeatureCount":3,"overlapStatus":"Low-zoom hull overlap removed; higher-priority or smaller same-priority hull kept the shared area."},"geometry":{"type":"Polygon","coordinates":[[[-0.7932983,45.2168801],[-0.7932953,45.2168528],[-0.7932852,45.2168276],[-0.7896333,45.2068499],[-0.7896032,45.2067498],[-0.789364,45.2060052],[-0.7889747,45.2047008],[-0.7885679,45.2033194],[-0.7885577,45.2032872],[-0.7867024,45.1938934],[-0.7892406,45.1794118],[-0.7893587,45.1787515],[-0.7896051,45.1773516],[-0.7896311,45.1772051],[-0.7898731,45.1758546],[-0.7900137,45.1748498],[-0.7900089,45.1747515],[-0.7899937,45.1747072],[-0.7866293,45.1683379],[-0.7833771,45.1671366],[-0.782269,45.1669371],[-0.7810463,45.1667204],[-0.7808997,45.1667123],[-0.7807877671517272,45.16672388934369],[-0.7801798,45.1669425],[-0.779165,45.167306],[-0.7640443,45.1717911],[-0.7637913,45.1718659],[-0.7636318,45.1718983],[-0.7635615,45.1719106],[-0.7439945890567468,45.17416915203281],[-0.7422127,45.1749065],[-0.7419388,45.1750186],[-0.7415742,45.175192],[-0.7414288,45.1753272],[-0.7402948,45.1789728],[-0.7403011,45.179021],[-0.7403122,45.1790614],[-0.7415293,45.1812226],[-0.7428974,45.1836568],[-0.747838,45.1914404],[-0.7528574,45.2076402],[-0.7529266,45.2080666],[-0.7529442,45.2081462],[-0.7550324,45.2183031],[-0.7550368,45.2183282],[-0.7551086,45.2187301],[-0.7555954,45.2216748],[-0.7574969,45.2278819],[-0.7575268,45.2279554],[-0.7664679,45.2271075],[-0.7668867,45.2270694],[-0.7692601,45.2265861],[-0.769323,45.2265718],[-0.7693629,45.2265618],[-0.7905254,45.220821],[-0.7906814,45.2207519],[-0.7923418,45.21983],[-0.7927202,45.2190692],[-0.7931876,45.217418],[-0.7932186,45.2173061],[-0.7932472,45.2171689],[-0.7932983,45.2168801]]]},"id":"pauillac"},{"type":"Feature","properties":{"id":"saint-estephe","name":"Saint-Estèphe","sourceApp":"Saint-Estèphe","sourceDenom":"Saint-Estèphe","sign":"AOC","typeProd":"Vins","category":"Vin tranquille","insee":"33395","commune":"SAINT-ESTEPHE","idApp":69,"idDenom":166,"idAire":127,"dataStatus":"Official INAO/data.gouv.fr parcel delimitation extract, informational use; official plans remain those deposited with town halls or INAO.","displayStatus":"Trial display feature: AOC features replaced by one filled concave outer hull for low-zoom display.","sourceFeatureId":"saint-estephe-2370","concaveMaxEdgeKilometers":2.4,"hullPointCount":2653,"sourceFeatureCount":4,"hullSourceFeatureCount":4},"geometry":{"type":"Polygon","coordinates":[[[-0.7932975,45.2254629],[-0.7936096,45.2256852],[-0.793778,45.2258268],[-0.7938785,45.22592],[-0.7957421,45.2286551],[-0.8160145,45.2423309],[-0.8133343,45.2545048],[-0.8123795,45.2564717],[-0.8123741,45.256482],[-0.7970258,45.2742044],[-0.7969553,45.2742555],[-0.7968899,45.2743014],[-0.7968259,45.2743231],[-0.7937698,45.2752188],[-0.7934153,45.2752443],[-0.793394,45.2752458],[-0.7928098,45.2752678],[-0.7926488,45.2752709],[-0.7920208,45.2752678],[-0.7710257,45.2754334],[-0.7593402,45.265018],[-0.7589861,45.2645831],[-0.753231,45.2512954],[-0.7524473,45.2491687],[-0.7523487,45.2488977],[-0.7522311,45.24851],[-0.7514919,45.2460318],[-0.7534797,45.240986],[-0.7537036,45.24044],[-0.7573128,45.2375425],[-0.7580469,45.2370187],[-0.7580949,45.2369928],[-0.7733461,45.2295372],[-0.7846927,45.2256327],[-0.7847914,45.225599],[-0.7861794,45.2251977],[-0.7862154,45.2251876],[-0.786465,45.2251325],[-0.7866377,45.2251059],[-0.7897215,45.2249948],[-0.7928764,45.2252641],[-0.7929352,45.2252742],[-0.7930009,45.2252936],[-0.7931073,45.2253445],[-0.7932975,45.2254629]]]},"id":"saint-estephe"},{"type":"Feature","properties":{"id":"listrac-medoc","name":"Listrac-Médoc","sourceApp":"Listrac-Médoc","sourceDenom":"Listrac-Médoc","sign":"AOC","typeProd":"Vins","category":"Vin tranquille","insee":"33248","commune":"LISTRAC-MEDOC","idApp":45,"idDenom":104,"idAire":106,"dataStatus":"Official INAO/data.gouv.fr parcel delimitation extract, informational use; official plans remain those deposited with town halls or INAO.","displayStatus":"Trial display feature: AOC features replaced by one filled concave outer hull for low-zoom display.","sourceFeatureId":"listrac-medoc-1588","concaveMaxEdgeKilometers":2.4,"hullPointCount":4288,"sourceFeatureCount":23,"hullSourceFeatureCount":23,"overlapStatus":"Low-zoom hull overlap removed; higher-priority or smaller same-priority hull kept the shared area."},"geometry":{"type":"Polygon","coordinates":[[[-0.8262071,45.0735341],[-0.8262048,45.0735226],[-0.8258093,45.0721272],[-0.8258015,45.0721023],[-0.8251461,45.0702597],[-0.8244774,45.0688196],[-0.8153676,45.0527355],[-0.808243395939283,45.04721777622947],[-0.80183,45.0517109],[-0.792854,45.0578166],[-0.7849896,45.063443],[-0.7686352,45.080125],[-0.7495877,45.0905278],[-0.7493288,45.090596],[-0.7460296379325716,45.091260855056944],[-0.7512346,45.0985937],[-0.7543246,45.1000643],[-0.7543813,45.1000902],[-0.7546848,45.1002033],[-0.7548652,45.1002684],[-0.7571407,45.1008393],[-0.7678448,45.1035883],[-0.7704395,45.1030844],[-0.7925821,45.0980056],[-0.7932591,45.097764],[-0.8063132,45.0878252],[-0.8261985,45.073542],[-0.8262071,45.0735341]],[[-0.7512346,45.0985937],[-0.7512271,45.0985674],[-0.7512301,45.0985779],[-0.7512346,45.0985937]]]},"id":"listrac-medoc"},{"type":"Feature","properties":{"id":"margaux","name":"Margaux","sourceApp":"Margaux","sourceDenom":"Margaux","sign":"AOC","typeProd":"Vins","category":"Vin tranquille","insee":"33012","commune":"ARSAC","idApp":52,"idDenom":111,"idAire":112,"dataStatus":"Official INAO/data.gouv.fr parcel delimitation extract, informational use; official plans remain those deposited with town halls or INAO.","displayStatus":"Trial display feature: AOC features replaced by one filled concave outer hull for low-zoom display.","sourceFeatureId":"margaux-1619","concaveMaxEdgeKilometers":2.4,"hullPointCount":7038,"sourceFeatureCount":44,"hullSourceFeatureCount":44},"geometry":{"type":"Polygon","coordinates":[[[-0.7242985,45.0598008],[-0.71921,45.0613873],[-0.7151357,45.0626514],[-0.69663,45.0679339],[-0.696557,45.0679494],[-0.6955396,45.0680388],[-0.6947363,45.0680722],[-0.6892142,45.0680224],[-0.6874975,45.0674104],[-0.6863964,45.0669081],[-0.6858959,45.0666131],[-0.6844822,45.0654371],[-0.6821086,45.0633103],[-0.6767263,45.0568288],[-0.6595149,45.0403215],[-0.6490856,45.0309131],[-0.6261492,45.0200396],[-0.6240506,45.0185087],[-0.6240247,45.0177869],[-0.6245034,45.0172626],[-0.6282574,45.0137368],[-0.6413209,45.0037587],[-0.6441804,45.0016284],[-0.6641475,44.9872126],[-0.669061,44.9880763],[-0.6848723,44.992098],[-0.7124091,44.987692],[-0.7150872,44.9880839],[-0.7164324,44.9892143],[-0.7167822,44.9928766],[-0.7143025,44.9947135],[-0.7060804,45.0137039],[-0.7206069,45.0315588],[-0.7222677,45.032775],[-0.723058,45.0344089],[-0.7230566,45.0353294],[-0.723058,45.0344091],[-0.723058,45.0344089],[-0.7260005,45.0550027],[-0.7264389,45.0582873],[-0.7264249,45.0583669],[-0.7264023,45.0584455],[-0.7263811,45.0585012],[-0.7263329,45.0585914],[-0.7262767,45.0586794],[-0.7262358,45.0587353],[-0.7261114,45.0588745],[-0.726031,45.0589413],[-0.72564,45.059158],[-0.7248793,45.0595795],[-0.7247525,45.0596388],[-0.7246211,45.0596931],[-0.7244854,45.0597419],[-0.7243882,45.059773],[-0.7242985,45.0598008]]]},"id":"margaux"},{"type":"Feature","properties":{"id":"entre-deux-mers-haut-benauge","name":"Entre-deux-Mers Haut-Benauge","sourceApp":"Entre-deux-Mers","sourceDenom":"Entre-deux-Mers Haut-Benauge","sign":"AOC","typeProd":"Vins","category":"Vin tranquille","insee":"33008","commune":"PORTE-DE-BENAUGE","idApp":32,"idDenom":91,"idAire":95,"dataStatus":"Official INAO/data.gouv.fr parcel delimitation extract, informational use; official plans remain those deposited with town halls or INAO.","displayStatus":"Trial display feature: AOC features replaced by one filled concave outer hull for low-zoom display.","sourceFeatureId":"entre-deux-mers-haut-benauge-1299","concaveMaxEdgeKilometers":2.4,"hullPointCount":13349,"sourceFeatureCount":55,"hullSourceFeatureCount":55},"geometry":{"type":"Polygon","coordinates":[[[-0.3164614,44.693572],[-0.3164672,44.6936068],[-0.3164599,44.6937109],[-0.3164405,44.6937665],[-0.3164142,44.6938312],[-0.3161531,44.6942323],[-0.3159182,44.6945611],[-0.3158876,44.6946036],[-0.3157145,44.694846],[-0.3156445,44.6949354],[-0.3152484,44.6954449],[-0.3148681,44.6958857],[-0.3147592,44.6960084],[-0.3103272,44.7022104],[-0.3093271,44.7040961],[-0.3090913,44.7044822],[-0.3088824,44.7047135],[-0.3085932,44.7050322],[-0.3080847,44.7056114],[-0.3079658,44.7056975],[-0.3079417,44.7057133],[-0.299566,44.7177268],[-0.3051372,44.7309035],[-0.3055761,44.7312609],[-0.3059805,44.7315843],[-0.3064422,44.7319557],[-0.3071173,44.7324675],[-0.307166,44.7325024],[-0.3072655,44.7325742],[-0.3086032,44.7334805],[-0.3086906,44.7335351],[-0.3091188,44.733805],[-0.3094522,44.7340393],[-0.3095476,44.7341131],[-0.3096607,44.7342314],[-0.3097989,44.7343808],[-0.3099511,44.7345438],[-0.3102803,44.7349373],[-0.310439,44.7351344],[-0.3109987,44.7359187],[-0.2936334,44.7525746],[-0.2936158,44.7525916],[-0.2935899,44.7526098],[-0.2935637,44.7526226],[-0.2875384,44.7551886],[-0.2875109,44.7551932],[-0.2873037,44.7551845],[-0.2642899,44.7637013],[-0.2602841,44.7683718],[-0.2600331,44.7684732],[-0.2599247,44.7685087],[-0.2564855,44.7691944],[-0.2555327,44.7691431],[-0.2546475,44.7690527],[-0.2505435,44.7664748],[-0.2462843,44.7637036],[-0.2386443,44.7487826],[-0.2354306,44.7277431],[-0.2345312,44.7241294],[-0.22501,44.7060146],[-0.2123286,44.7025344],[-0.1992201,44.706677],[-0.1989396,44.7066828],[-0.1984195,44.706563],[-0.1982035,44.706513],[-0.1981216,44.7064934],[-0.1978015,44.7064161],[-0.197544,44.7063518],[-0.1968543,44.7061756],[-0.1964771,44.70608],[-0.1959284,44.7059283],[-0.1955281,44.705812],[-0.1886163,44.6931148],[-0.1814719,44.6790715],[-0.1698449,44.6725322],[-0.1674227,44.6647179],[-0.1626476,44.6498899],[-0.1660279,44.6452614],[-0.1927319,44.6363503],[-0.1960157,44.6339316],[-0.2067481,44.6254028],[-0.2083027,44.6255627],[-0.2095167,44.6257144],[-0.2114737,44.6261464],[-0.2114939,44.6261532],[-0.2118705,44.6262881],[-0.2121333,44.626395],[-0.2122159,44.6264447],[-0.2161044,44.6304479],[-0.236405,44.6417753],[-0.238255,44.645239],[-0.2583286,44.6569513],[-0.2588964,44.6570031],[-0.2596673,44.6570554],[-0.2598205,44.6570658],[-0.2635737,44.657731],[-0.2781948,44.66125],[-0.2782774,44.6612701],[-0.2783596,44.6613062],[-0.2785358,44.6613986],[-0.2799692,44.6622189],[-0.281804,44.6634782],[-0.2869203,44.667108],[-0.2968154,44.6747432],[-0.2983484,44.6760251],[-0.3003261,44.6781476],[-0.3163997,44.6934755],[-0.316446,44.6935321],[-0.3164614,44.693572]]]},"id":"entre-deux-mers-haut-benauge"},{"type":"Feature","properties":{"id":"cadillac","name":"Cadillac","sourceApp":"Cadillac","sourceDenom":"Cadillac","sign":"AOC","typeProd":"Vins","category":"Vin de triees successives","insee":"33033","commune":"BAURECH","idApp":20,"idDenom":76,"idAire":83,"dataStatus":"Official INAO/data.gouv.fr parcel delimitation extract, informational use; official plans remain those deposited with town halls or INAO.","displayStatus":"Trial display feature: AOC features replaced by one filled concave outer hull for low-zoom display.","sourceFeatureId":"cadillac-0","concaveMaxEdgeKilometers":2.4,"hullPointCount":41489,"sourceFeatureCount":155,"hullSourceFeatureCount":155,"overlapStatus":"Low-zoom hull overlap removed; higher-priority or smaller same-priority hull kept the shared area."},"geometry":{"type":"MultiPolygon","coordinates":[[[[-0.4564763,44.7290153],[-0.4563782,44.7289102],[-0.4562894,44.7288279],[-0.4562087,44.7287615],[-0.4560974,44.7286773],[-0.4560232,44.728623],[-0.4543614,44.7281384],[-0.4477722,44.7265577],[-0.4470584,44.7264483],[-0.4468787,44.7264215],[-0.4456156,44.7262346],[-0.4247485,44.7205745],[-0.4123478,44.7142716],[-0.4123419,44.714268],[-0.4122021,44.7141843],[-0.4121065,44.7141313],[-0.4001346,44.7066287],[-0.3996695,44.7063704],[-0.3895996,44.7016062],[-0.389446,44.7015198],[-0.3893937,44.7014941],[-0.3886156,44.7011183],[-0.386846,44.7002609],[-0.3798356,44.6962841],[-0.3643418,44.679326],[-0.3638254,44.6785675],[-0.3636444,44.6782974],[-0.3596528,44.6736212],[-0.3496781,44.6608389],[-0.3495412,44.6606742],[-0.3488434,44.6598903],[-0.3486553,44.6597444],[-0.3431913,44.6559883],[-0.323884,44.639648],[-0.3149818,44.6320077],[-0.3146717,44.6317822],[-0.3145197,44.6317282],[-0.3136661,44.6315355],[-0.3107523,44.631101],[-0.3087185,44.6315],[-0.3056354,44.6317419],[-0.30489728897321633,44.63107658708055],[-0.2888165,44.6481173],[-0.288216,44.6482646],[-0.2742438,44.6487155],[-0.2705479,44.6476677],[-0.2643853,44.6458463],[-0.2601614,44.6436968],[-0.2598432,44.6434433],[-0.2594886,44.6431606],[-0.2590155,44.6427814],[-0.260223,44.6408393],[-0.2626264,44.6388316],[-0.2787207,44.6214606],[-0.283002,44.6114184],[-0.2838066,44.6101212],[-0.2848017575574046,44.608628683928956],[-0.2784297,44.6093276],[-0.2729311,44.609152],[-0.2477073,44.6120174],[-0.2458011,44.6122626],[-0.2455618,44.6122685],[-0.2453576,44.612273],[-0.243476,44.612148],[-0.242713,44.6083404],[-0.2427044,44.6082887],[-0.2426998,44.6081682],[-0.2428003,44.6075649],[-0.2428287,44.6074388],[-0.2428404,44.6073943],[-0.2430438,44.606789],[-0.2430938,44.6066474],[-0.2432281,44.6062966],[-0.243288,44.6061406],[-0.2437383,44.6050827],[-0.2437666,44.6050305],[-0.2438171,44.6049478],[-0.2442459,44.6042701],[-0.2443563,44.6041056],[-0.2446876,44.6036184],[-0.2448151,44.6034342],[-0.244981,44.6031953],[-0.2452737,44.6027822],[-0.2453471,44.6026806],[-0.2536929,44.5909971],[-0.2537141,44.5909689],[-0.2537484,44.5909248],[-0.2537984,44.5908754],[-0.2538633,44.590818],[-0.2539437,44.5907627],[-0.263816,44.5838861],[-0.264009,44.58376],[-0.2640274,44.5837515],[-0.2640561,44.5837436],[-0.2641579,44.5837172],[-0.2644324,44.5836543],[-0.2645774,44.5836223],[-0.2645971,44.5836182],[-0.2646154,44.5836154],[-0.2646357,44.5836132],[-0.2651208,44.5835631],[-0.26551376326391357,44.58366040042281],[-0.2653933,44.5792472],[-0.2654079,44.5790108],[-0.2646012,44.5764091],[-0.2642355,44.5756207],[-0.2641921,44.5755726],[-0.2636834,44.5750186],[-0.2635745,44.5749019],[-0.263462,44.5747868],[-0.2633577,44.5746931],[-0.2631552,44.5745232],[-0.2591974,44.5715812],[-0.25909,44.5715112],[-0.2583724,44.5710544],[-0.2568844,44.5701082],[-0.2567454,44.5700205],[-0.2565892,44.5699303],[-0.2559295,44.5695821],[-0.2556098,44.5694139],[-0.2552536,44.5692479],[-0.2455986,44.565509],[-0.2442143,44.5654955],[-0.2383298,44.5663431],[-0.2310416,44.5681774],[-0.2309803,44.5683955],[-0.2309073,44.5686669],[-0.2260052,44.5881748],[-0.223771,44.5944904],[-0.2142471,44.6071059],[-0.1992882,44.6132535],[-0.196063,44.6162254],[-0.1960123,44.6173612],[-0.1963208,44.6182902],[-0.196392,44.6184952],[-0.1978494,44.6196084],[-0.201972,44.6221638],[-0.20655848973733473,44.62555347906603],[-0.2067481,44.6254028],[-0.2083027,44.6255627],[-0.2095167,44.6257144],[-0.2114737,44.6261464],[-0.2114939,44.6261532],[-0.2118705,44.6262881],[-0.2121333,44.626395],[-0.2122159,44.6264447],[-0.2161044,44.6304479],[-0.236405,44.6417753],[-0.238255,44.645239],[-0.2583286,44.6569513],[-0.2588964,44.6570031],[-0.2596673,44.6570554],[-0.2598205,44.6570658],[-0.2635737,44.657731],[-0.26389932131250327,44.657809370396116],[-0.267116,44.6581879],[-0.2678013,44.6583739],[-0.2764217,44.6601309],[-0.2906228,44.6682116],[-0.2912183,44.6686533],[-0.2920882,44.6691174],[-0.2921581,44.6691555],[-0.3009477,44.6755599],[-0.3010355,44.6756339],[-0.3012221,44.6757879],[-0.3065923,44.6819284],[-0.3085072,44.6848157],[-0.30873046529517845,44.68616206289617],[-0.3163997,44.6934755],[-0.316446,44.6935321],[-0.3164614,44.693572],[-0.3164672,44.6936068],[-0.3164599,44.6937109],[-0.3164405,44.6937665],[-0.3164142,44.6938312],[-0.3161531,44.6942323],[-0.3159182,44.6945611],[-0.3158876,44.6946036],[-0.3157145,44.694846],[-0.3156445,44.6949354],[-0.3152484,44.6954449],[-0.3148681,44.6958857],[-0.3147592,44.6960084],[-0.3103272,44.7022104],[-0.3093271,44.7040961],[-0.3090913,44.7044822],[-0.3088824,44.7047135],[-0.3085932,44.7050322],[-0.3080847,44.7056114],[-0.3079658,44.7056975],[-0.3079417,44.7057133],[-0.299566,44.7177268],[-0.3051372,44.7309035],[-0.3055761,44.7312609],[-0.3059805,44.7315843],[-0.3064422,44.7319557],[-0.3071173,44.7324675],[-0.307166,44.7325024],[-0.3072655,44.7325742],[-0.3086032,44.7334805],[-0.3086906,44.7335351],[-0.3091188,44.733805],[-0.3094522,44.7340393],[-0.3095476,44.7341131],[-0.3096607,44.7342314],[-0.3097989,44.7343808],[-0.3099511,44.7345438],[-0.3102803,44.7349373],[-0.310439,44.7351344],[-0.3109987,44.7359187],[-0.31092160424468024,44.73599264627165],[-0.3113279,44.7362865],[-0.3279148,44.7417598],[-0.3467454,44.7575891],[-0.3475159,44.7579776],[-0.3488721,44.7580732],[-0.3489783,44.7580794],[-0.3491306,44.7580858],[-0.3492831,44.7580892],[-0.3511886,44.7578175],[-0.3689659,44.7492493],[-0.3711033,44.7485215],[-0.3967268,44.7435288],[-0.4041283,44.7444527],[-0.4042804,44.7444805],[-0.4044168,44.7445018],[-0.4046855,44.7445208],[-0.4053032,44.7445478],[-0.405521,44.7445574],[-0.4063728,44.7445815],[-0.4072415,44.7446045],[-0.4076213,44.7446165],[-0.4085417,44.7446375],[-0.4091203,44.7446294],[-0.4091812,44.7446284],[-0.4093344,44.7446084],[-0.4099877,44.7445069],[-0.4104198,44.744433],[-0.4106678,44.7443832],[-0.4354886,44.7393669],[-0.4432771,44.7379472],[-0.4434415,44.7379105],[-0.4434931,44.7378963],[-0.4469225,44.7368949],[-0.446954,44.7368823],[-0.4469908,44.7368648],[-0.447941,44.736402],[-0.4479644,44.7363885],[-0.4514946,44.7339588],[-0.4541708,44.7318739],[-0.4543357,44.731743],[-0.4545828,44.7315467],[-0.4548285,44.7313467],[-0.4549273,44.7312532],[-0.4550387,44.7311279],[-0.4559885,44.7299346],[-0.4560489,44.729858],[-0.4560839,44.7298136],[-0.4562287,44.7296113],[-0.4563044,44.7294754],[-0.4563226,44.7294279],[-0.4564405,44.7291188],[-0.4564763,44.7290153]],[[-0.3113279,44.7362865],[-0.3113103,44.7362638],[-0.3113141,44.7362687],[-0.3113279,44.7362865]]],[[[-0.2851230705865474,44.608593440863764],[-0.28512307058654623,44.608593440863764],[-0.28481271923264806,44.60862748160287],[-0.2851230705865474,44.608593440863764]]],[[[-0.2638246,44.5838805],[-0.263816,44.5838861],[-0.2638174,44.5838852],[-0.2638246,44.5838805]]],[[[-0.263816,44.5838861],[-0.2638094,44.5838932],[-0.2638149,44.5838873],[-0.263816,44.5838861]]]]},"id":"cadillac"},{"type":"Feature","properties":{"id":"graves-de-vayres","name":"Graves de Vayres","sourceApp":"Graves de Vayres","sourceDenom":"Graves de Vayres","sign":"AOC","typeProd":"Vins","category":"Vin tranquille","insee":"33015","commune":"ARVEYRES","idApp":38,"idDenom":97,"idAire":100,"dataStatus":"Official INAO/data.gouv.fr parcel delimitation extract, informational use; official plans remain those deposited with town halls or INAO.","displayStatus":"Trial display feature: AOC features replaced by one filled concave outer hull for low-zoom display.","sourceFeatureId":"graves-de-vayres-1354","concaveMaxEdgeKilometers":2.4,"hullPointCount":2812,"sourceFeatureCount":12,"hullSourceFeatureCount":12},"geometry":{"type":"Polygon","coordinates":[[[-0.3522451,44.898869],[-0.3522331,44.898901],[-0.3509752,44.9012369],[-0.3496246,44.9030476],[-0.3444639,44.9089733],[-0.3443568,44.9090746],[-0.343965,44.909439],[-0.3424808,44.9108088],[-0.342462,44.9108213],[-0.3416222,44.9111409],[-0.3414736,44.9111969],[-0.3413179,44.911254],[-0.3411805,44.911301],[-0.3411711,44.9113042],[-0.3409924,44.9113618],[-0.3408175,44.9114182],[-0.3407047,44.9114508],[-0.3405382,44.9114956],[-0.3386766,44.911973],[-0.3265892,44.9142876],[-0.3265018,44.9143005],[-0.3264065,44.9143131],[-0.3262217,44.9143304],[-0.3261025,44.9143407],[-0.3259546,44.9143472],[-0.325786,44.9143399],[-0.3257491,44.9143316],[-0.3251417,44.9141951],[-0.3213055,44.9113891],[-0.3181156,44.9061753],[-0.3107205,44.8965057],[-0.2860061,44.8870721],[-0.2859381,44.887069],[-0.2858886,44.8870516],[-0.2857699,44.8869755],[-0.2856545,44.8868913],[-0.2855347,44.8867998],[-0.2853836,44.8866553],[-0.2853163,44.8865854],[-0.2809151,44.881572],[-0.291246,44.8644071],[-0.2916028,44.8642246],[-0.2954869,44.8622438],[-0.3059473,44.8626778],[-0.3063079,44.8627222],[-0.3069254,44.8628063],[-0.3075423,44.8628971],[-0.3076275,44.8629108],[-0.333091,44.870867],[-0.3349243,44.8718925],[-0.3392873,44.8747203],[-0.3406325,44.8758115],[-0.3469883,44.8823672],[-0.3502367,44.8885673],[-0.3502483,44.8885929],[-0.3522511,44.8988234],[-0.3522509,44.8988463],[-0.3522451,44.898869]]]},"id":"graves-de-vayres"},{"type":"Feature","properties":{"id":"cotes-de-bordeaux-saint-macaire","name":"Côtes de Bordeaux-Saint-Macaire","sourceApp":"Côtes de Bordeaux-Saint-Macaire","sourceDenom":"Côtes de Bordeaux-Saint-Macaire","sign":"AOC","typeProd":"Vins","category":"Vin de triees successives, Vin tranquille","insee":"33111","commune":"CAUDROT","idApp":25,"idDenom":81,"idAire":88,"dataStatus":"Official INAO/data.gouv.fr parcel delimitation extract, informational use; official plans remain those deposited with town halls or INAO.","displayStatus":"Trial display feature: AOC features replaced by one filled concave outer hull for low-zoom display.","sourceFeatureId":"cotes-de-bordeaux-saint-macaire-451","concaveMaxEdgeKilometers":2.4,"hullPointCount":10635,"sourceFeatureCount":52,"hullSourceFeatureCount":52,"overlapStatus":"Low-zoom hull overlap removed; higher-priority or smaller same-priority hull kept the shared area."},"geometry":{"type":"Polygon","coordinates":[[[-0.2357965,44.5649498],[-0.2348191,44.562599],[-0.2339478,44.562477],[-0.2329479,44.5623559],[-0.2326731,44.5623469],[-0.2323698,44.562337],[-0.2323627,44.5623372],[-0.2104486,44.5701336],[-0.2047165,44.5713262],[-0.1747475,44.5705659],[-0.1514861,44.5715934],[-0.1495565,44.5717096],[-0.147629,44.571873],[-0.1471514,44.5720043],[-0.1469349,44.5720955],[-0.1465296,44.5722943],[-0.1461727,44.5725652],[-0.1328229,44.5841009],[-0.1294043,44.594093],[-0.1194087,44.6068889],[-0.1086896,44.6199125],[-0.1082176,44.6208508],[-0.1074723,44.6248635],[-0.1074051,44.63111],[-0.1230038,44.6480547],[-0.1233419,44.6483724],[-0.1235387,44.6485552],[-0.123584,44.6485972],[-0.1236556,44.6485196],[-0.1245845,44.6474386],[-0.1513848,44.6395456],[-0.1711387,44.6383391],[-0.18414665323871593,44.63921518887113],[-0.19081865392498,44.636988748438405],[-0.20111669143928976,44.629877955355056],[-0.2054079831651407,44.62646776109548],[-0.2054744,44.6260064],[-0.2056293,44.6249563],[-0.20565391009875164,44.624884942812805],[-0.201972,44.6221638],[-0.1978494,44.6196084],[-0.196392,44.6184952],[-0.1963208,44.6182902],[-0.1960123,44.6173612],[-0.196063,44.6162254],[-0.1992882,44.6132535],[-0.2142471,44.6071059],[-0.21989885481439111,44.59961950127039],[-0.2157574,44.5967727],[-0.2073833,44.5809357],[-0.2294272,44.5676154],[-0.2297988,44.5675294],[-0.2306339,44.5673234],[-0.2308827,44.5672668],[-0.2311597,44.5672035],[-0.2317034,44.5670782],[-0.2345141,44.5664183],[-0.2346983,44.5663646],[-0.2351705,44.5662274],[-0.2352697,44.5660933],[-0.2357965,44.5649498]]]},"id":"cotes-de-bordeaux-saint-macaire"},{"type":"Feature","properties":{"id":"cotes-de-bordeaux-cadillac","name":"Côtes de Bordeaux Cadillac","sourceApp":"Côtes de Bordeaux","sourceDenom":"Côtes de Bordeaux Cadillac","sign":"AOC","typeProd":"Vins","category":"Vin tranquille","insee":"33032","commune":"BASSENS","idApp":685,"idDenom":2077,"idAire":1452,"dataStatus":"Official INAO/data.gouv.fr parcel delimitation extract, informational use; official plans remain those deposited with town halls or INAO.","displayStatus":"Trial display feature: AOC features replaced by one filled concave outer hull for low-zoom display.","sourceFeatureId":"cotes-de-bordeaux-cadillac-155","concaveMaxEdgeKilometers":2.4,"hullPointCount":18571,"sourceFeatureCount":127,"hullSourceFeatureCount":127,"overlapStatus":"Low-zoom hull overlap removed; higher-priority or smaller same-priority hull kept the shared area."},"geometry":{"type":"MultiPolygon","coordinates":[[[[-0.5187679,44.9177699],[-0.5124932,44.9085912],[-0.5119487,44.9083984],[-0.4974337,44.8934579],[-0.500383,44.8792003],[-0.5004325,44.8790981],[-0.5005918,44.8787676],[-0.5006146,44.87872],[-0.4969309,44.8769552],[-0.496455,44.8766707],[-0.4959897,44.8764037],[-0.4956787,44.876253],[-0.4954574,44.8761678],[-0.4945345,44.8760443],[-0.4900297,44.8746992],[-0.4895279,44.874468],[-0.4894215,44.8744326],[-0.488199,44.8741866],[-0.482647,44.8726648],[-0.4819293,44.8725018],[-0.4812126,44.8723294],[-0.4809822,44.8722739],[-0.4809065,44.8722588],[-0.4754133,44.8718843],[-0.4616384,44.8650461],[-0.4609325,44.8649601],[-0.4603392,44.8648888],[-0.4599505,44.8650768],[-0.4524308,44.8687157],[-0.4492079,44.8710838],[-0.4444066,44.8905925],[-0.4442418,44.8913278],[-0.4556676,44.9112025],[-0.4553947,44.9118297],[-0.4553564,44.912059],[-0.455356,44.9121103],[-0.4554901,44.9152755],[-0.4555322,44.9165156],[-0.4555419,44.9165526],[-0.4556462,44.9165992],[-0.4699236,44.9224151],[-0.4731122,44.9221744],[-0.4743374,44.921867],[-0.5033575,44.9184573],[-0.5112162,44.9199381],[-0.5116394,44.9200369],[-0.5120074,44.9201238],[-0.5126075,44.920267],[-0.512717,44.9202911],[-0.5129698,44.9203468],[-0.5131418,44.9203813],[-0.5134598,44.9204384],[-0.5135026,44.9204439],[-0.5135361,44.9204445],[-0.5135766,44.9204427],[-0.5136119,44.9204397],[-0.5136416,44.9204357],[-0.5137296,44.920418],[-0.5137507,44.9204115],[-0.5182324,44.918197],[-0.51835,44.9181178],[-0.5184039,44.918081],[-0.5184328,44.9180577],[-0.5187679,44.9177699]]],[[[-0.506179,44.764801],[-0.505586,44.7615192],[-0.4892055,44.747411],[-0.4852718,44.7434295],[-0.4842722,44.7424044],[-0.4840093,44.742139],[-0.4791271,44.738361],[-0.4725437,44.7359905],[-0.4664146,44.7338935],[-0.4650173,44.7334486],[-0.463498,44.7333391],[-0.4607727,44.7334496],[-0.4606558,44.7334716],[-0.4578665,44.7341156],[-0.44795993399927875,44.73639107653888],[-0.447941,44.736402],[-0.4469908,44.7368648],[-0.446954,44.7368823],[-0.4469225,44.7368949],[-0.4434931,44.7378963],[-0.4434415,44.7379105],[-0.4432771,44.7379472],[-0.4354886,44.7393669],[-0.412240877886203,44.74406527992488],[-0.4083802,44.7461249],[-0.4011813,44.7499698],[-0.408519,44.7647374],[-0.4107244,44.7657416],[-0.4109217,44.7658302],[-0.4109419,44.7658393],[-0.4111078,44.7659143],[-0.411392,44.7660336],[-0.4114792,44.7660644],[-0.4116168,44.7661092],[-0.4117876,44.7661575],[-0.4120025,44.7662162],[-0.4121463,44.766252],[-0.4122897,44.7662876],[-0.4122998,44.7662901],[-0.4125826,44.7663534],[-0.4127235,44.766385],[-0.4127611,44.7663934],[-0.4128893,44.7664216],[-0.4132712,44.7665056],[-0.4137169,44.7666074],[-0.4144704,44.7667737],[-0.4146031,44.766803],[-0.4151168,44.766915],[-0.4153591,44.7669681],[-0.4157238,44.7670477],[-0.4205301,44.7684582],[-0.420942,44.7686065],[-0.4218662,44.768959],[-0.4234223,44.7694886],[-0.4408087,44.78685],[-0.4425353,44.7892706],[-0.4457445,44.7930158],[-0.4462367,44.7936239],[-0.4462498,44.7936308],[-0.4465665,44.7937966],[-0.4478102,44.7945198],[-0.4521931,44.7978858],[-0.4543984,44.816188],[-0.4516624,44.821812],[-0.451417,44.8226935],[-0.4550873,44.8263607],[-0.4551851,44.8263891],[-0.4553724,44.8264228],[-0.4554828,44.8264341],[-0.4609825,44.8276318],[-0.4617895,44.8279534],[-0.471598,44.827086],[-0.4716969,44.8270939],[-0.4719601,44.827084],[-0.4721812,44.827056],[-0.495216,44.836039],[-0.497716,44.8403369],[-0.4983951,44.8407951],[-0.4989835,44.8411235],[-0.4993975,44.8413283],[-0.4998437,44.8414944],[-0.4998606,44.841442],[-0.500021,44.8409058],[-0.5001971,44.8403273],[-0.5003172,44.8398326],[-0.5003745,44.8395176],[-0.5003998,44.8393548],[-0.5004043,44.8393198],[-0.5004362,44.8390684],[-0.5004564,44.8389],[-0.5005048,44.8383993],[-0.5005035,44.8383501],[-0.4990621,44.8350836],[-0.5053822,44.8142692],[-0.5056219,44.8107167],[-0.5017088,44.8008588],[-0.5004333,44.7969953],[-0.4987751,44.7955168],[-0.4945225,44.789444],[-0.493125,44.7763128],[-0.5035893,44.7665655],[-0.506179,44.764801]]]]},"id":"cotes-de-bordeaux-cadillac"},{"type":"Feature","properties":{"id":"premieres-cotes-de-bordeaux","name":"Premières Côtes de Bordeaux","sourceApp":"Premières Côtes de Bordeaux","sourceDenom":"Premières Côtes de Bordeaux","sign":"AOC","typeProd":"Vins","category":"Vin tranquille","insee":"33032","commune":"BASSENS","idApp":64,"idDenom":123,"idAire":122,"dataStatus":"Official INAO/data.gouv.fr parcel delimitation extract, informational use; official plans remain those deposited with town halls or INAO.","displayStatus":"Trial display feature: AOC features replaced by one filled concave outer hull for low-zoom display.","sourceFeatureId":"premieres-cotes-de-bordeaux-2070","concaveMaxEdgeKilometers":2.4,"hullPointCount":18571,"sourceFeatureCount":127,"hullSourceFeatureCount":127},"geometry":{"type":"MultiPolygon","coordinates":[[[[-0.5184328,44.9180577],[-0.5184039,44.918081],[-0.51835,44.9181178],[-0.5182324,44.918197],[-0.5137507,44.9204115],[-0.5137296,44.920418],[-0.5136416,44.9204357],[-0.5136119,44.9204397],[-0.5135766,44.9204427],[-0.5135361,44.9204445],[-0.5135026,44.9204439],[-0.5134598,44.9204384],[-0.5131418,44.9203813],[-0.5129698,44.9203468],[-0.512717,44.9202911],[-0.5126075,44.920267],[-0.5120074,44.9201238],[-0.5116394,44.9200369],[-0.5112162,44.9199381],[-0.5033575,44.9184573],[-0.4743374,44.921867],[-0.4731122,44.9221744],[-0.4699236,44.9224151],[-0.4556462,44.9165992],[-0.4555419,44.9165526],[-0.4555322,44.9165156],[-0.4554901,44.9152755],[-0.455356,44.9121103],[-0.4553564,44.912059],[-0.4553947,44.9118297],[-0.4556676,44.9112025],[-0.4442418,44.8913278],[-0.4444066,44.8905925],[-0.4492079,44.8710838],[-0.4524308,44.8687157],[-0.4599505,44.8650768],[-0.4603392,44.8648888],[-0.4609325,44.8649601],[-0.4616384,44.8650461],[-0.4754133,44.8718843],[-0.4809065,44.8722588],[-0.4809822,44.8722739],[-0.4812126,44.8723294],[-0.4819293,44.8725018],[-0.482647,44.8726648],[-0.488199,44.8741866],[-0.4894215,44.8744326],[-0.4895279,44.874468],[-0.4900297,44.8746992],[-0.4945345,44.8760443],[-0.4954574,44.8761678],[-0.4956787,44.876253],[-0.4959897,44.8764037],[-0.496455,44.8766707],[-0.4969309,44.8769552],[-0.5006146,44.87872],[-0.5005918,44.8787676],[-0.5004325,44.8790981],[-0.500383,44.8792003],[-0.4974337,44.8934579],[-0.5119487,44.9083984],[-0.5124932,44.9085912],[-0.5187679,44.9177699],[-0.5184328,44.9180577]]],[[[-0.506179,44.764801],[-0.5035893,44.7665655],[-0.493125,44.7763128],[-0.4945225,44.789444],[-0.4987751,44.7955168],[-0.5004333,44.7969953],[-0.5017088,44.8008588],[-0.5056219,44.8107167],[-0.5053822,44.8142692],[-0.4990621,44.8350836],[-0.5005035,44.8383501],[-0.5005048,44.8383993],[-0.5004564,44.8389],[-0.5004362,44.8390684],[-0.5004043,44.8393198],[-0.5003998,44.8393548],[-0.5003745,44.8395176],[-0.5003172,44.8398326],[-0.5001971,44.8403273],[-0.500021,44.8409058],[-0.4998606,44.841442],[-0.4998437,44.8414944],[-0.4993975,44.8413283],[-0.4989835,44.8411235],[-0.4983951,44.8407951],[-0.497716,44.8403369],[-0.495216,44.836039],[-0.4721812,44.827056],[-0.4719601,44.827084],[-0.4716969,44.8270939],[-0.471598,44.827086],[-0.4617895,44.8279534],[-0.4609825,44.8276318],[-0.4554828,44.8264341],[-0.4553724,44.8264228],[-0.4551851,44.8263891],[-0.4550873,44.8263607],[-0.451417,44.8226935],[-0.4516624,44.821812],[-0.4543984,44.816188],[-0.4521931,44.7978858],[-0.4478102,44.7945198],[-0.4465665,44.7937966],[-0.4462498,44.7936308],[-0.4462367,44.7936239],[-0.4457445,44.7930158],[-0.4425353,44.7892706],[-0.4408087,44.78685],[-0.4234223,44.7694886],[-0.4218662,44.768959],[-0.420942,44.7686065],[-0.4205301,44.7684582],[-0.4157238,44.7670477],[-0.4153591,44.7669681],[-0.4151168,44.766915],[-0.4146031,44.766803],[-0.4144704,44.7667737],[-0.4137169,44.7666074],[-0.4132712,44.7665056],[-0.4128893,44.7664216],[-0.4127611,44.7663934],[-0.4127235,44.766385],[-0.4125826,44.7663534],[-0.4122998,44.7662901],[-0.4122897,44.7662876],[-0.4121463,44.766252],[-0.4120025,44.7662162],[-0.4117876,44.7661575],[-0.4116168,44.7661092],[-0.4114792,44.7660644],[-0.411392,44.7660336],[-0.4111078,44.7659143],[-0.4109419,44.7658393],[-0.4109217,44.7658302],[-0.4107244,44.7657416],[-0.408519,44.7647374],[-0.4011813,44.7499698],[-0.4083802,44.7461249],[-0.4129462,44.743689],[-0.4207993,44.7404017],[-0.4209536,44.7403385],[-0.4210715,44.7402977],[-0.4232233,44.7395789],[-0.4233526,44.7395648],[-0.4457643,44.7368954],[-0.4578665,44.7341156],[-0.4606558,44.7334716],[-0.4607727,44.7334496],[-0.463498,44.7333391],[-0.4650173,44.7334486],[-0.4664146,44.7338935],[-0.4725437,44.7359905],[-0.4791271,44.738361],[-0.4840093,44.742139],[-0.4842722,44.7424044],[-0.4852718,44.7434295],[-0.4892055,44.747411],[-0.505586,44.7615192],[-0.506179,44.764801]]],[[[-0.4740563,44.7468419],[-0.4740565,44.7468419],[-0.4740447,44.7468523],[-0.4740563,44.7468419]]],[[[-0.4683326,44.7514213],[-0.4683322,44.751422],[-0.468327,44.7514281],[-0.4683326,44.7514213]]]]},"id":"premieres-cotes-de-bordeaux"},{"type":"Feature","properties":{"id":"haut-medoc","name":"Haut-Médoc","sourceApp":"Haut-Médoc","sourceDenom":"Haut-Médoc","sign":"AOC","typeProd":"Vins","category":"Vin tranquille","insee":"33010","commune":"ARCINS","idApp":39,"idDenom":98,"idAire":101,"dataStatus":"Official INAO/data.gouv.fr parcel delimitation extract, informational use; official plans remain those deposited with town halls or INAO.","displayStatus":"Trial display feature: AOC features replaced by one filled concave outer hull for low-zoom display.","sourceFeatureId":"haut-medoc-1367","concaveMaxEdgeKilometers":2.4,"hullPointCount":18693,"sourceFeatureCount":122,"hullSourceFeatureCount":122,"overlapStatus":"Low-zoom hull overlap removed; higher-priority or smaller same-priority hull kept the shared area."},"geometry":{"type":"MultiPolygon","coordinates":[[[[-0.8815892,45.2466114],[-0.8779159,45.23483],[-0.8678689,45.2194508],[-0.86359,45.2086169],[-0.8488753,45.1919739],[-0.8532936,45.1709299],[-0.8534458,45.1698122],[-0.8534573,45.1697198],[-0.8534557,45.1695865],[-0.8533609,45.1670692],[-0.8533356,45.1667023],[-0.8533187,45.1666055],[-0.8532651,45.1664559],[-0.8499645,45.1598791],[-0.8478879,45.1577024],[-0.8394204,45.1560777],[-0.8365061,45.1554226],[-0.8349855,45.1550981],[-0.8338638,45.156204],[-0.8129605,45.1660814],[-0.8128096,45.166036],[-0.8125019,45.1660466],[-0.7998913,45.158856],[-0.7981113,45.1483498],[-0.8121599,45.1379039],[-0.812858,45.1378674],[-0.8131084,45.1378047],[-0.8135164,45.1376988],[-0.8138096,45.1376275],[-0.8142662,45.1375253],[-0.8143791,45.1374998],[-0.8145246,45.1374678],[-0.8146712,45.1373762],[-0.8148202,45.1372828],[-0.8149351,45.1372122],[-0.8151036,45.1371054],[-0.8168315,45.1361863],[-0.8219873,45.1233099],[-0.8219554,45.1231415],[-0.8218699,45.1228974],[-0.821701,45.1224759],[-0.8216324,45.1223665],[-0.8202264,45.1214321],[-0.8192843,45.1214716],[-0.8189614,45.1214791],[-0.8096633,45.1234127],[-0.8093611,45.1234248],[-0.8091223,45.123433],[-0.8061528,45.1236192],[-0.8050829,45.1236142],[-0.7851407,45.1148661],[-0.7843805,45.1146196],[-0.7839583,45.1146646],[-0.7832224,45.1147383],[-0.7825494,45.1148026],[-0.7815606,45.1149029],[-0.7814468,45.1149139],[-0.7696101,45.1172639],[-0.7500617,45.1287262],[-0.7391325,45.1313768],[-0.7369726,45.1321295],[-0.7365761,45.1322629],[-0.7358803,45.1325001],[-0.7356528,45.1325821],[-0.735131,45.1327729],[-0.7346111,45.1329663],[-0.7319884,45.1340034],[-0.7327,45.1366556],[-0.7362612,45.1367521],[-0.7376529,45.136772],[-0.7380404,45.1367263],[-0.7478111,45.1365942],[-0.7537059,45.1365892],[-0.7543009,45.1365504],[-0.7628715092770634,45.1417826534691],[-0.7669992,45.141661],[-0.7676603,45.1416728],[-0.7681594,45.1416968],[-0.768624,45.1417581],[-0.7742711,45.1425815],[-0.7745309,45.1426481],[-0.7746021,45.1426665],[-0.7747421,45.1427034],[-0.7748575,45.1427934],[-0.7749731,45.1429037],[-0.7750706,45.1430287],[-0.7826568953808632,45.15443425847392],[-0.7831353,45.154776],[-0.796337,45.159426],[-0.8079973,45.1701002],[-0.807225,45.1885694],[-0.8073078,45.1888638],[-0.8075506,45.1897259],[-0.8077499,45.1904492],[-0.8086527,45.1903176],[-0.809394,45.1902064],[-0.8355157,45.2009415],[-0.8331555,45.2039921],[-0.833074,45.2040757],[-0.8311824,45.2059484],[-0.8309302,45.2062096],[-0.8308884,45.2062519],[-0.8308458,45.2062947],[-0.8308086,45.2063325],[-0.8307678,45.2063739],[-0.8307492,45.2063929],[-0.8306631,45.2064816],[-0.8306406,45.2065046],[-0.8305541,45.2065934],[-0.830453,45.2066971],[-0.8304258,45.2067249],[-0.8302689,45.2068862],[-0.8302618,45.2068935],[-0.8301424,45.207016],[-0.8301056,45.2070536],[-0.8300706,45.2070897],[-0.8299655,45.2071976],[-0.8299158,45.2072488],[-0.8298601,45.2073057],[-0.8298021,45.2073647],[-0.8296924,45.2074766],[-0.8295608,45.2076107],[-0.8155079,45.2174772],[-0.8147919,45.2174891],[-0.8130492,45.2179308],[-0.8128175,45.2179748],[-0.8127,45.2180095],[-0.8125385,45.2180727],[-0.8122841,45.2181949],[-0.8120637,45.2183287],[-0.8116297,45.2194072],[-0.8117482,45.2194987],[-0.8135535,45.2199708],[-0.8201134,45.2406176],[-0.8185921,45.2413205],[-0.8180661,45.2415025],[-0.8178217,45.2415866],[-0.817762,45.2416085],[-0.8176799,45.2416401],[-0.8175167,45.241716],[-0.8172177,45.2418596],[-0.8168865,45.242017],[-0.816627,45.2421395],[-0.8165899,45.242157],[-0.8163082,45.2422928],[-0.8161573,45.2423628],[-0.8161106,45.2423879],[-0.8159806293348458,45.242484746015414],[-0.8133343,45.2545048],[-0.8123795,45.2564717],[-0.8123741,45.256482],[-0.7970258,45.2742044],[-0.7969553,45.2742555],[-0.7968899,45.2743014],[-0.7968259,45.2743231],[-0.7937698,45.2752188],[-0.7934153,45.2752443],[-0.793394,45.2752458],[-0.7928098,45.2752678],[-0.7926488,45.2752709],[-0.7920208,45.2752678],[-0.7898246593043261,45.2752851221799],[-0.7859983,45.2788397],[-0.7759281,45.2802785],[-0.7758131,45.2802805],[-0.7739702,45.2802814],[-0.7736606,45.2802749],[-0.7733669,45.2802687],[-0.7732169,45.2803006],[-0.7729605,45.2803592],[-0.7728902,45.2803811],[-0.7727989,45.2804151],[-0.7717868,45.2808198],[-0.7716006,45.2809289],[-0.7715026,45.2809922],[-0.7711448,45.2812675],[-0.7709309,45.2815912],[-0.7708815,45.2816661],[-0.7706428,45.2869078],[-0.770532,45.2925415],[-0.7713618,45.293826],[-0.7805905,45.3079871],[-0.7806187,45.3080298],[-0.7808034,45.308282],[-0.7808194,45.3082971],[-0.7808606,45.3083355],[-0.7809285,45.3083964],[-0.7813382,45.3086711],[-0.7822964,45.3092339],[-0.7874582,45.309584],[-0.7878829,45.3096071],[-0.7898696,45.3094774],[-0.7909608,45.3089472],[-0.791574,45.3086223],[-0.7919123,45.3082561],[-0.8106337,45.297747],[-0.8221281,45.2995624],[-0.8228161,45.299654],[-0.8229126,45.2996665],[-0.8230383,45.2996831],[-0.8230796,45.2996885],[-0.823157,45.2996892],[-0.8234916,45.299692],[-0.8243805,45.2995736],[-0.8261812,45.2990608],[-0.8332584,45.296688],[-0.8335104,45.2965991],[-0.8339242,45.2964162],[-0.8339737,45.2963943],[-0.8370756,45.2935897],[-0.8371019,45.2935641],[-0.8371188,45.2935473],[-0.837212,45.2934522],[-0.8372627,45.2933952],[-0.8372851,45.29337],[-0.8373046,45.2933474],[-0.8373171,45.2933323],[-0.8373702,45.293268],[-0.8375163,45.2930896],[-0.8377686,45.2925397],[-0.8380548,45.291037],[-0.8361016,45.2853776],[-0.8360719,45.2852134],[-0.8398942,45.2679937],[-0.8570699,45.2617533],[-0.8581283,45.2619223],[-0.866589,45.2627657],[-0.8669978,45.2626957],[-0.8670809,45.2626802],[-0.8672824,45.2626407],[-0.8676143,45.2625661],[-0.8715912,45.261709],[-0.8717256,45.2616592],[-0.8729294,45.2611271],[-0.8730031,45.2610849],[-0.8730388,45.2610476],[-0.8811389,45.2478062],[-0.8815892,45.2466114]],[[-0.8375163,45.2930896],[-0.8375014,45.2930671],[-0.8375087,45.2930781],[-0.8375163,45.2930896]]],[[[-0.8293379,45.0294572],[-0.8293373,45.0294035],[-0.8293322,45.0289624],[-0.8293287,45.0286576],[-0.8289315,45.0284761],[-0.8286513,45.0283677],[-0.8281945,45.0282169],[-0.8271015,45.0279713],[-0.8213447,45.0267581],[-0.8133923,45.0258211],[-0.8132839,45.0258058],[-0.8131898,45.0257957],[-0.8130776,45.0257905],[-0.8129761,45.0257929],[-0.8128324,45.0258097],[-0.7928981,45.0338447],[-0.7723242,45.0262394],[-0.7593898,45.0230671],[-0.7391553,45.0177035],[-0.7360379,45.0171049],[-0.7359476,45.0171064],[-0.7356719,45.0171141],[-0.7355201,45.0171609],[-0.7353667,45.0172082],[-0.7352519,45.0172438],[-0.7349919,45.0173245],[-0.7347347,45.0174074],[-0.7346292,45.0174415],[-0.7344204,45.0175232],[-0.7332399,45.0186827],[-0.7329682,45.0194992],[-0.7315486,45.0273339],[-0.7174166395219641,45.027637567644696],[-0.7206069,45.0315588],[-0.7222677,45.032775],[-0.723058,45.0344089],[-0.7260005,45.0550027],[-0.7264389,45.0582873],[-0.7264249,45.0583669],[-0.7264023,45.0584455],[-0.7263811,45.0585012],[-0.7263329,45.0585914],[-0.7262767,45.0586794],[-0.7262358,45.0587353],[-0.7261114,45.0588745],[-0.726031,45.0589413],[-0.72564,45.059158],[-0.7248793,45.0595795],[-0.7247525,45.0596388],[-0.7246211,45.0596931],[-0.7244854,45.0597419],[-0.7243882,45.059773],[-0.7242985,45.0598008],[-0.71921,45.0613873],[-0.7151357,45.0626514],[-0.7128829397417387,45.06329445625101],[-0.719825,45.0702897],[-0.7201797,45.0707698],[-0.7207124,45.0707815],[-0.7207956,45.0707813],[-0.7209407,45.0707813],[-0.7211417,45.070781],[-0.7211628,45.0707809],[-0.7232067,45.0707954],[-0.7232862,45.0707971],[-0.7234309,45.0708001],[-0.7236273,45.070804],[-0.7237403,45.0708064],[-0.7239189,45.0708102],[-0.7401964,45.05515],[-0.7403735,45.0550237],[-0.7447075,45.0523479],[-0.7447833,45.0523057],[-0.7449215,45.0521987],[-0.7458853,45.0514448],[-0.7463639,45.0510737],[-0.7511536,45.0463456],[-0.767902,45.0365718],[-0.7936809,45.0351624],[-0.7952576,45.0356219],[-0.7952956,45.0356238],[-0.7955198,45.0356348],[-0.8127297438596461,45.03452146611339],[-0.8280156,45.0295796],[-0.8283258,45.0295717],[-0.8288484,45.0295615],[-0.8291086897094947,45.02955690761697],[-0.8293379,45.0294572]]],[[[-0.8244097206624362,45.074826843227626],[-0.8241725230518235,45.07499721736892],[-0.8243976,45.0750101],[-0.8244097206624362,45.074826843227626]]],[[[-0.723058,45.0344089],[-0.7230566,45.0353294],[-0.723058,45.0344091],[-0.723058,45.0344089]]],[[[-0.7003746,44.9837955],[-0.6968231,44.9700544],[-0.6937924,44.9633871],[-0.6907246,44.942164],[-0.6904844,44.9418162],[-0.6904215,44.9417337],[-0.6891068,44.9416642],[-0.6863295,44.941771],[-0.6857114,44.941934],[-0.658098,44.9335807],[-0.6593555,44.9295427],[-0.6732821,44.9151864],[-0.6822125,44.9145319],[-0.6824162,44.914581],[-0.6826147,44.9146285],[-0.6828079,44.9146744],[-0.6829291,44.9147028],[-0.6830992,44.9147441],[-0.6831508,44.9147568],[-0.6836958,44.914827],[-0.6838982,44.9148582],[-0.6841751,44.9149013],[-0.6843898,44.9149266],[-0.6845075,44.9149407],[-0.6846401,44.9149129],[-0.6909188,44.9140211],[-0.6956263,44.9141566],[-0.6972497,44.9143459],[-0.6972521,44.914344],[-0.6972546,44.9143422],[-0.6972663,44.9143274],[-0.6972753,44.9143108],[-0.6972821,44.914298],[-0.6972843,44.9142925],[-0.6972908,44.9142761],[-0.6973584,44.9140701],[-0.6973729,44.914021],[-0.6974025,44.913892],[-0.6974103,44.9138575],[-0.6974574,44.9136089],[-0.6976376,44.9124564],[-0.6932774,44.9021082],[-0.6915134,44.9013574],[-0.690737,44.9011994],[-0.6802722,44.9002777],[-0.6535598,44.9015638],[-0.6423043,44.9021742],[-0.6172978,44.9024344],[-0.6140362,44.9025847],[-0.6124359,44.9032871],[-0.6087868,44.9052855],[-0.6087435,44.9053206],[-0.6082418,44.9057375],[-0.6082585,44.9080062],[-0.60874,44.9079987],[-0.6245293,44.9253773],[-0.6052255,44.9374308],[-0.6050967,44.9374404],[-0.5954235,44.9384497],[-0.5952262,44.9384596],[-0.5947916,44.9385296],[-0.5933436,44.93922],[-0.5930894,44.939531],[-0.5929705,44.9399332],[-0.5926908,44.9413501],[-0.5892115,44.960734],[-0.5891008,44.9640003],[-0.5921066,44.9732586],[-0.5922995,44.9738509],[-0.5923328,44.9738949],[-0.6020947,44.985424],[-0.6113788,45.0053159],[-0.6117326,45.0067429],[-0.6138329,45.0102673],[-0.6188867,45.0158391],[-0.6190124,45.0159738],[-0.6240378334065687,45.01815291130739],[-0.6240247,45.0177869],[-0.6245034,45.0172626],[-0.6282574,45.0137368],[-0.6413209,45.0037587],[-0.6441804,45.0016284],[-0.6470588631834947,44.99955021390584],[-0.6467852,44.9993078],[-0.6516203,44.9945938],[-0.6519431,44.9942065],[-0.6524445,44.9935987],[-0.6528571,44.9931075],[-0.6533787,44.9924576],[-0.6540083,44.9916726],[-0.6606588,44.986071],[-0.6643098439676199,44.98724113698684],[-0.669061,44.9880763],[-0.6848723,44.992098],[-0.6998669973443995,44.9896987874372],[-0.6999168,44.9896696],[-0.7001781,44.9895094],[-0.7003522,44.9851861],[-0.7003746,44.9837955]],[[-0.658098,44.9335807],[-0.6852346,44.942994],[-0.6844448,44.9448052],[-0.6667125,44.9539814],[-0.658098,44.9335807]],[[-0.6972663,44.9143274],[-0.6972569,44.9143385],[-0.6972616,44.9143329],[-0.6972663,44.9143274]]]]},"id":"haut-medoc"},{"type":"Feature","properties":{"id":"medoc","name":"Médoc","sourceApp":"Médoc","sourceDenom":"Médoc","sign":"AOC","typeProd":"Vins","category":"Vin tranquille","insee":"33038","commune":"BEGADAN","idApp":53,"idDenom":112,"idAire":113,"dataStatus":"Official INAO/data.gouv.fr parcel delimitation extract, informational use; official plans remain those deposited with town halls or INAO.","displayStatus":"Trial display feature: AOC features replaced by one filled concave outer hull for low-zoom display.","sourceFeatureId":"medoc-1700","concaveMaxEdgeKilometers":2.4,"hullPointCount":29813,"sourceFeatureCount":143,"hullSourceFeatureCount":143},"geometry":{"type":"Polygon","coordinates":[[[-1.0391219,45.3859556],[-1.0392468,45.3859331],[-1.0394626,45.3858939],[-1.0398922,45.3858194],[-1.0403574,45.3857342],[-1.0485576,45.3846906],[-1.0489298,45.3847186],[-1.0492435,45.3847435],[-1.0502353,45.3850239],[-1.0568455,45.3878977],[-1.0593116,45.3901888],[-1.0604096,45.3915933],[-1.0603563,45.3916806],[-1.0584973,45.3925456],[-1.0581823,45.3927125],[-1.05815,45.3927285],[-1.0580258,45.3927897],[-1.0578051,45.3928728],[-1.0577641,45.3928852],[-1.0576394,45.3929227],[-1.0575283,45.3929506],[-1.0573022,45.3929927],[-1.0438245,45.4013103],[-1.0418899,45.4036421],[-1.0395876,45.4072651],[-1.0507434,45.4265958],[-1.0508729,45.4266129],[-1.0510472,45.426673],[-1.0491415,45.4371586],[-1.0485971,45.455077],[-1.0479789,45.4566605],[-1.0467077,45.4565387],[-1.0464609,45.4565141],[-1.038516,45.4385129],[-1.0267071,45.4358885],[-1.0264188,45.4357939],[-1.0256526,45.4355441],[-1.0254132,45.4354648],[-1.0253231,45.4354318],[-1.0250333,45.4349935],[-1.0251826,45.4344208],[-1.0252521,45.4341839],[-1.0260233,45.4286189],[-1.0211006,45.4124043],[-0.9975676,45.4143923],[-0.997109,45.4149149],[-0.9968523,45.414977],[-0.987363,45.4188907],[-0.9783292,45.4326701],[-0.9779342,45.4326687],[-0.9778012,45.4326562],[-0.9776549,45.4326414],[-0.9763072,45.4324041],[-0.9754196,45.4322359],[-0.9743346,45.4320301],[-0.9741873,45.4319943],[-0.9738522,45.4318915],[-0.9697639,45.4306058],[-0.9548496,45.4171563],[-0.9390061,45.4201637],[-0.9338089,45.4190953],[-0.933116,45.4188882],[-0.9327405,45.4187761],[-0.9295097,45.417797],[-0.9242129,45.4156596],[-0.9225506,45.4149546],[-0.9223288,45.4148368],[-0.9169307,45.4119245],[-0.916845,45.411864],[-0.9168165,45.4118417],[-0.9167319,45.4117632],[-0.896415,45.3984426],[-0.8870773,45.3960841],[-0.8799654,45.3951353],[-0.8799602,45.3951337],[-0.8795339,45.3950024],[-0.8792036,45.3948912],[-0.8785194,45.394585],[-0.8784212,45.3945343],[-0.8783175,45.3944784],[-0.8542276,45.382622],[-0.8528851,45.3821165],[-0.8527083,45.3820378],[-0.8526129,45.3819906],[-0.8525007,45.3819223],[-0.8504106,45.3800415],[-0.8503804,45.3800119],[-0.8398163,45.3708944],[-0.8281228,45.3633021],[-0.8266973,45.362435],[-0.8103533,45.3518933],[-0.8103158,45.3518676],[-0.8053804,45.3467437],[-0.805317,45.3466774],[-0.8046611,45.345946],[-0.8045213,45.3457344],[-0.8025223,45.3425985],[-0.7906319,45.3227547],[-0.7901303,45.3219189],[-0.7893298,45.3205595],[-0.7879223,45.3163252],[-0.7886091,45.3156402],[-0.7901923,45.3140847],[-0.8188453,45.3071701],[-0.8191083,45.3070648],[-0.8194545,45.3069449],[-0.8361297,45.2957487],[-0.8431894,45.2833408],[-0.8435441,45.2828862],[-0.8442219,45.2820777],[-0.8445526,45.2817267],[-0.8563691,45.2723718],[-0.8567698,45.2720605],[-0.8674844,45.2642669],[-0.8716576,45.2626992],[-0.8739985,45.2632877],[-0.9013477,45.2559601],[-0.9022936,45.2558436],[-0.9089967,45.2589793],[-0.9122082,45.2635045],[-0.9262377,45.2763055],[-0.9397497,45.2770597],[-0.9413387,45.2773192],[-0.9413671,45.2773236],[-0.941662,45.2773763],[-0.9418932,45.2774313],[-0.9426158,45.2776095],[-0.9430499,45.277789],[-0.945249,45.2786922],[-0.9439513,45.281394],[-0.9599405,45.2996516],[-0.9606984,45.2996031],[-0.961793,45.3001197],[-0.9621261,45.3002774],[-0.9640826,45.3012016],[-0.9816023,45.3127395],[-1.0019122,45.309618],[-1.0031026,45.3100388],[-1.004309,45.3104681],[-1.004831,45.3106549],[-1.0055051,45.3108959],[-1.0049964,45.3115687],[-1.0044713,45.3122619],[-0.9979735,45.3160845],[-0.995772,45.3349399],[-1.0035692,45.3414718],[-1.0053261,45.3421861],[-1.0053851,45.3422236],[-1.0054199,45.3422458],[-1.0054414,45.3422595],[-1.0055139,45.3423074],[-1.0058705,45.3434252],[-1.0058815,45.3435781],[-1.0058719,45.3440491],[-1.005759,45.3448249],[-1.0026564,45.3601676],[-1.0104148,45.367092],[-1.0126822,45.3680259],[-1.0156381,45.3709133],[-1.0154745,45.3719776],[-1.0378138,45.3861924],[-1.0380005,45.3861566],[-1.0382823,45.386104],[-1.0384674,45.3860714],[-1.0387848,45.3860157],[-1.0391219,45.3859556]]]},"id":"medoc"},{"type":"Feature","properties":{"id":"entre-deux-mers","name":"Entre-deux-Mers","sourceApp":"Entre-deux-Mers","sourceDenom":"Entre-deux-Mers","sign":"AOC","typeProd":"Vins","category":"Vin tranquille","insee":"33003","commune":"AMBARES-ET-LAGRAVE","idApp":32,"idDenom":90,"idAire":94,"dataStatus":"Official INAO/data.gouv.fr parcel delimitation extract, informational use; official plans remain those deposited with town halls or INAO.","displayStatus":"Trial display feature: AOC features replaced by one filled concave outer hull for low-zoom display.","sourceFeatureId":"entre-deux-mers-506","concaveMaxEdgeKilometers":2.4,"hullPointCount":130306,"sourceFeatureCount":700,"hullSourceFeatureCount":700,"overlapStatus":"Low-zoom hull overlap removed; higher-priority or smaller same-priority hull kept the shared area."},"geometry":{"type":"Polygon","coordinates":[[[-0.5164371,44.9621974],[-0.5164361,44.9621562],[-0.5163945,44.9612295],[-0.5120475,44.9532102],[-0.5093855,44.9377799],[-0.5093903,44.9376103],[-0.5093914,44.9375734],[-0.5093947,44.9374565],[-0.5093734,44.9372209],[-0.5093504,44.9369631],[-0.5093373,44.9368158],[-0.5092634,44.9360234],[-0.5090811,44.9343306],[-0.5036179,44.918659],[-0.5035896,44.9185845],[-0.5030793962368562,44.918489975642096],[-0.4743374,44.921867],[-0.4731122,44.9221744],[-0.4699236,44.9224151],[-0.4556462,44.9165992],[-0.4555419,44.9165526],[-0.4555322,44.9165156],[-0.4554901,44.9152755],[-0.455356,44.9121103],[-0.4553564,44.912059],[-0.4553947,44.9118297],[-0.4556350293918269,44.91127735630431],[-0.4552586,44.9112001],[-0.4546316,44.9110623],[-0.4544735,44.9110264],[-0.4539756,44.9109133],[-0.4537503,44.9108617],[-0.453446,44.9107908],[-0.4531037,44.9107123],[-0.4530399,44.9106993],[-0.4438923,44.8920638],[-0.4443361084614822,44.89149184561426],[-0.4442418,44.8913278],[-0.4444066,44.8905925],[-0.4460945018725728,44.88373419677765],[-0.4443087,44.8770947],[-0.44854111727192764,44.87379307961326],[-0.4492079,44.8710838],[-0.4524308,44.8687157],[-0.45932941834094165,44.86537735109235],[-0.4602317,44.8646735],[-0.4608395,44.8647557],[-0.4614093,44.8648307],[-0.4616838,44.8648668],[-0.4621371,44.8649266],[-0.4626035,44.86499],[-0.4636185,44.8651266],[-0.4642749,44.8652163],[-0.4643691,44.8652293],[-0.4647936,44.8652865],[-0.4648141,44.8652893],[-0.4650236,44.8653161],[-0.465041,44.8653184],[-0.465122,44.865329],[-0.4651805,44.8653368],[-0.4653605,44.8653597],[-0.4654004,44.8653648],[-0.4654515,44.8653714],[-0.4658027,44.8654183],[-0.4768482,44.8716399],[-0.4770151,44.8716549],[-0.4772305,44.8716742],[-0.4772824,44.8716789],[-0.4776743,44.8717146],[-0.4778785,44.8717333],[-0.4781611,44.8717594],[-0.4783132,44.8717745],[-0.4785559,44.8717985],[-0.4786055,44.8718037],[-0.4800935,44.8720075],[-0.4821264,44.8724339],[-0.4824126,44.8725037],[-0.4851688,44.8733439],[-0.4852664,44.8733775],[-0.4853442804029162,44.87340412300381],[-0.4860849147480911,44.87360713045094],[-0.4861799,44.8736264],[-0.4862462,44.8735251],[-0.4864617,44.873197],[-0.4864915,44.8731514],[-0.4868032,44.8726811],[-0.4868754,44.872572],[-0.4909684,44.8531226],[-0.4975341,44.8406385],[-0.4975899,44.8404503],[-0.4976525329733508,44.84022779002647],[-0.495216,44.836039],[-0.47433429320444476,44.82789565288414],[-0.4712719696106056,44.827114832008945],[-0.4617895,44.8279534],[-0.4609825,44.8276318],[-0.4554828,44.8264341],[-0.4553724,44.8264228],[-0.4551851,44.8263891],[-0.4550873,44.8263607],[-0.451417,44.8226935],[-0.4516624,44.821812],[-0.4543984,44.816188],[-0.45279296562364935,44.80286419777679],[-0.4469257,44.8036186],[-0.4327286,44.7998464],[-0.4326132,44.7997814],[-0.4234867,44.7850131],[-0.4265192,44.7775822],[-0.4265957,44.7774756],[-0.4267466,44.777265],[-0.4272559,44.7765402],[-0.4273072,44.7764673],[-0.4273112,44.7764616],[-0.4278821,44.7756653],[-0.4279235,44.7756075],[-0.4280252,44.7754656],[-0.4280277,44.7754299],[-0.4280503,44.7751019],[-0.4280703,44.7748407],[-0.4280753,44.774758],[-0.4280864,44.7745728],[-0.4280899,44.7745015],[-0.4274176130318209,44.77347816814928],[-0.4234223,44.7694886],[-0.4218662,44.768959],[-0.4210762049267357,44.768657687228604],[-0.419258,44.7681129],[-0.41920032863174744,44.768067953341465],[-0.4157238,44.7670477],[-0.4153591,44.7669681],[-0.4151168,44.766915],[-0.4146031,44.766803],[-0.4144704,44.7667737],[-0.4137169,44.7666074],[-0.4132712,44.7665056],[-0.4128893,44.7664216],[-0.4127611,44.7663934],[-0.4127235,44.766385],[-0.4125826,44.7663534],[-0.4122998,44.7662901],[-0.4122897,44.7662876],[-0.4121463,44.766252],[-0.4120025,44.7662162],[-0.4117876,44.7661575],[-0.4116168,44.7661092],[-0.4114792,44.7660644],[-0.411392,44.7660336],[-0.4111078,44.7659143],[-0.4109419,44.7658393],[-0.4109217,44.7658302],[-0.4107244,44.7657416],[-0.408519,44.7647374],[-0.4044693726843406,44.75658726080833],[-0.3991027,44.7524047],[-0.3991023,44.7524044],[-0.3837322854644311,44.74606076139176],[-0.3774122240329366,44.747292215748466],[-0.3771261,44.7474325],[-0.3652392,44.7521779],[-0.3651532,44.7522055],[-0.3650684,44.7522539],[-0.3625595039415723,44.75233701763472],[-0.3511886,44.7578175],[-0.3492831,44.7580892],[-0.3491306,44.7580858],[-0.3489783,44.7580794],[-0.3488721,44.7580732],[-0.3475159,44.7579776],[-0.3467454,44.7575891],[-0.34133401059579227,44.753040200533384],[-0.3362358,44.7532091],[-0.3339911,44.7519004],[-0.3337946,44.7517979],[-0.33324,44.7515077],[-0.3331003,44.7514333],[-0.3328407,44.7513066],[-0.3326206,44.751215],[-0.3192481,44.746216],[-0.3190174,44.7461462],[-0.3174301,44.7456663],[-0.3173924,44.7456547],[-0.313102,44.7458233],[-0.3039199,44.7552],[-0.3038395,44.7552762],[-0.3037749,44.7553536],[-0.3037001,44.7554782],[-0.3036394,44.7556564],[-0.3036223,44.7557123],[-0.3035647,44.7559217],[-0.3035458,44.7560209],[-0.2856962,44.7725615],[-0.2828107,44.7725093],[-0.2631076,44.768235],[-0.2619821,44.7683784],[-0.26042123872562867,44.768211905242886],[-0.2602841,44.7683718],[-0.2600331,44.7684732],[-0.2599247,44.7685087],[-0.2564855,44.7691944],[-0.2555327,44.7691431],[-0.2546475,44.7690527],[-0.2505435,44.7664748],[-0.2462843,44.7637036],[-0.2453340682722277,44.76184778748559],[-0.2379096,44.7556735],[-0.2360407,44.7424123],[-0.2358839,44.7421898],[-0.2366249305599175,44.73556216146043],[-0.2354306,44.7277431],[-0.2345312,44.7241294],[-0.22565782879288107,44.70724714306361],[-0.2064954,44.7160285],[-0.1884889,44.7049514],[-0.1884762,44.7049392],[-0.1860874,44.7044629],[-0.1860322,44.7044476],[-0.1859431,44.7044226],[-0.1774019,44.684666],[-0.1802854,44.6809226],[-0.17954743590603137,44.67798913584332],[-0.1698449,44.6725322],[-0.1678875451280399,44.66621754465529],[-0.1426145,44.6581917],[-0.138283,44.6570392],[-0.1373256,44.6568916],[-0.1219699,44.6503593],[-0.1151833,44.6441792],[-0.1053409,44.6278083],[-0.1007134,44.6229107],[-0.1092865,44.6050477],[-0.1176096,44.604965],[-0.1178965,44.6049643],[-0.117987,44.604964],[-0.1187826,44.604891],[-0.1195133,44.6048276],[-0.1194572,44.6041078],[-0.1011857,44.5899265],[-0.1010868,44.5898585],[-0.1009733,44.589807],[-0.0757286,44.5790215],[-0.0754713,44.5789181],[-0.075098,44.5788712],[-0.074945,44.5788734],[-0.0595983,44.5800988],[-0.056971,44.5802274],[-0.0566573,44.5802461],[-0.0564483,44.5802676],[-0.0557177,44.5803549],[-0.0552497,44.5804105],[-0.0255029,44.5801902],[-0.009009,44.5742878],[-0.0089341,44.5742611],[-0.0088607,44.5742372],[-0.0081277,44.5742128],[-0.0079851,44.5742127],[-0.0073352,44.5742126],[-0.0021054,44.5749088],[0.0240209,44.5698315],[0.0244003,44.5697205],[0.0247591,44.5696159],[0.0251055,44.5695147],[0.0254583,44.5694116],[0.0258623,44.5692936],[0.0259432,44.5692723],[0.0262867,44.5691841],[0.0269328,44.5690371],[0.0380448,44.5661653],[0.0547906,44.5585986],[0.063424,44.55374],[0.0644045,44.5531752],[0.064851,44.5529242],[0.0675104,44.5513998],[0.0677822,44.5512512],[0.071423,44.5496025],[0.071424,44.5496033],[0.0718519,44.5499468],[0.071913,44.5499993],[0.0733164,44.5512128],[0.0738548,44.551713],[0.0818988,44.5645065],[0.0822047,44.5649976],[0.0823146,44.5651793],[0.0823266,44.5652033],[0.0823368,44.5652239],[0.0823603,44.5652713],[0.0823711,44.5652932],[0.0833566,44.5683808],[0.0834448,44.5686411],[0.0861095,44.575963],[0.1026054,44.5891956],[0.1079519,44.5907138],[0.1100559,44.5911233],[0.122974,44.5978356],[0.131046,44.6058275],[0.1501648,44.6099306],[0.1516678,44.6097379],[0.1545484,44.6133184],[0.1548,44.6137743],[0.1550181,44.6145875],[0.1550808,44.6149117],[0.157365,44.6334257],[0.1628868,44.6414384],[0.1665118,44.6454611],[0.169017,44.649252],[0.1683753,44.6502525],[0.1668645,44.6513246],[0.165599,44.6518171],[0.158107,44.6539903],[0.1568331,44.6544645],[0.1565979,44.6545505],[0.1560585,44.6547511],[0.1560436,44.6547556],[0.1493045,44.6568703],[0.1477877,44.6574794],[0.1474094,44.6576287],[0.1460185,44.6581974],[0.1456841,44.6583304],[0.1451318,44.6584591],[0.1392959,44.6597857],[0.1296285,44.6779461],[0.1300296,44.6831434],[0.129936,44.6832261],[0.1056172,44.6957421],[0.1024237,44.6976989],[0.0901306,44.706681],[0.0834412,44.7151413],[0.083246,44.715187],[0.0829873,44.7152446],[0.0826661,44.7153153],[0.0822405,44.7154106],[0.0818278,44.7154979],[0.0816127,44.7155429],[0.0814141,44.7155849],[0.0707818,44.7203642],[0.061293,44.7400228],[0.0610064,44.7401098],[0.0602216,44.740271],[0.0539211,44.7429431],[0.0502155,44.7620581],[0.0628796,44.7711987],[0.063345,44.7718696],[0.0636588,44.7723152],[0.0644329,44.7853],[0.064381,44.7855686],[0.0638972,44.787063],[0.067259,44.8083683],[0.0676919,44.8103916],[0.0687836,44.8148685],[0.0692118,44.8180535],[0.0690509,44.8186835],[0.0675731,44.8203814],[0.0675335,44.8204208],[0.0666808,44.8212651],[0.065421,44.8217432],[0.060438,44.8231136],[0.0602086,44.8231796],[0.060079,44.8232138],[0.0557312,44.8245545],[0.0371478,44.8387775],[0.0370957,44.8388438],[0.0365388,44.8393152],[0.0361146,44.8396075],[0.0250941,44.8464243],[0.0227698,44.8476676],[0.0217819,44.8480811],[0.0207272,44.8484575],[0.0205513,44.8485093],[0.0203799,44.848555],[0.0191286,44.8487931],[0.0189676,44.8488207],[0.018831,44.8488365],[0.0187148,44.8488422],[0.0176019,44.8486444],[0.0174048,44.8486033],[0.0171711,44.8485493],[0.0170605,44.8485237],[-0.0090024,44.847121],[-0.0155169,44.8482599],[-0.0166161,44.8484887],[-0.0199181,44.8492399],[-0.0204187,44.8493639],[-0.0206008,44.8494062],[-0.0225679,44.8498132],[-0.0229072,44.8498745],[-0.0233369,44.8499469],[-0.0270517,44.8505932],[-0.0273759,44.8506512],[-0.0275593,44.8506795],[-0.0278761,44.8507281],[-0.0279399,44.8507369],[-0.0282305,44.8507755],[-0.0285431,44.8508097],[-0.0289779,44.8508515],[-0.0316275,44.8510772],[-0.0340512,44.8511914],[-0.0344206,44.8512068],[-0.0365524,44.8511577],[-0.0365939,44.8511568],[-0.0368063,44.8511501],[-0.0371226,44.8511385],[-0.0371902,44.8511351],[-0.0372471,44.8511319],[-0.0375657,44.8511124],[-0.0377,44.8510999],[-0.0379087,44.8510804],[-0.0382957,44.8510344],[-0.0383325,44.8510275],[-0.0447664,44.8490978],[-0.0449616,44.8490358],[-0.0462361,44.8485983],[-0.0462639,44.8485887],[-0.0464331,44.848529],[-0.0466422,44.848451],[-0.0468029,44.848389],[-0.0473798,44.8481581],[-0.0474875,44.848113],[-0.047685,44.8480243],[-0.0483599,44.8476716],[-0.0485677,44.8475628],[-0.0487294,44.8474687],[-0.0489815,44.8473076],[-0.066494,44.8377371],[-0.0904101,44.8291261],[-0.0908769,44.8289484],[-0.0911862,44.8288251],[-0.0915766,44.8286189],[-0.0941729,44.8268716],[-0.0946791,44.8265427],[-0.0949331,44.8263786],[-0.1023593,44.8219738],[-0.1024332,44.8218997],[-0.130339,44.8134293],[-0.1305348,44.8134513],[-0.1553209,44.8228661],[-0.1557676,44.8231204],[-0.1570884,44.82377],[-0.1584399,44.8244635],[-0.163207,44.8271888],[-0.1632892,44.8272389],[-0.163366,44.8272833],[-0.1634082,44.8273051],[-0.1635292,44.8273615],[-0.1640062,44.8275706],[-0.1653532,44.8281657],[-0.1715926,44.8293242],[-0.1716565,44.8293365],[-0.1717139,44.8293475],[-0.1719438,44.8293916],[-0.172078,44.8294175],[-0.1780075,44.8307195],[-0.2015074,44.838314],[-0.2079148,44.8413577],[-0.2162326,44.8461723],[-0.2312423,44.8595502],[-0.2313108,44.8596172],[-0.2313938,44.8596808],[-0.2314493,44.8597221],[-0.2315946,44.8598035],[-0.2325979,44.8603541],[-0.2451025,44.8638122],[-0.2455299,44.8639121],[-0.249676,44.8622631],[-0.2498849,44.8621844],[-0.2499596,44.8621541],[-0.2667684,44.8582907],[-0.2876112,44.8629882],[-0.29243282530448594,44.86380130654125],[-0.2954869,44.8622438],[-0.3059473,44.8626778],[-0.3063079,44.8627222],[-0.3069254,44.8628063],[-0.3075423,44.8628971],[-0.3076275,44.8629108],[-0.3208833637352004,44.86705266200051],[-0.34464,44.869063],[-0.3449915,44.869176],[-0.3453666,44.8692933],[-0.345611,44.8693697],[-0.3460665,44.8695115],[-0.3461382,44.8695316],[-0.3466024,44.8695699],[-0.3467587,44.8695829],[-0.3470758,44.8696095],[-0.3485442,44.8697333],[-0.3507474,44.870102],[-0.3509799,44.8701493],[-0.3513536,44.8702165],[-0.3515579,44.8702423],[-0.3520072,44.8702245],[-0.3522784,44.8702137],[-0.3525266,44.8702021],[-0.3530939,44.8701614],[-0.3534852,44.8701201],[-0.3702032,44.8835137],[-0.3548423,44.8997164],[-0.3548191,44.8997463],[-0.353874,44.9008841],[-0.3534675,44.9014853],[-0.349256798817934,44.90346992244939],[-0.3444639,44.9089733],[-0.3443568,44.9090746],[-0.343965,44.909439],[-0.3424808,44.9108088],[-0.342462,44.9108213],[-0.3416222,44.9111409],[-0.3414736,44.9111969],[-0.3413179,44.911254],[-0.3411805,44.911301],[-0.3411711,44.9113042],[-0.3409924,44.9113618],[-0.3408175,44.9114182],[-0.3407047,44.9114508],[-0.3405382,44.9114956],[-0.3386766,44.911973],[-0.32875957689347696,44.91387199744216],[-0.3283486,44.9143417],[-0.3284456,44.9155272],[-0.3288814,44.916018],[-0.3294399,44.9165069],[-0.3295383,44.9165874],[-0.3299462,44.9169168],[-0.3323141,44.9188488],[-0.3343589,44.9202134],[-0.3374059,44.9220497],[-0.3374396,44.9220638],[-0.3639956,44.9311471],[-0.364112,44.9311874],[-0.364207,44.9312157],[-0.3643152,44.9312455],[-0.3644121,44.9312687],[-0.3645519,44.9312953],[-0.364653,44.9313111],[-0.3648852,44.9313371],[-0.3649614,44.9313407],[-0.3650744,44.9313365],[-0.3651622,44.9313288],[-0.3667384,44.9312013],[-0.3764562,44.9282804],[-0.3971543,44.9425434],[-0.3973432,44.9430026],[-0.3974898,44.9430819],[-0.3978842,44.9432662],[-0.3983473,44.9434788],[-0.3989805,44.9437712],[-0.3994027,44.9439567],[-0.3997173,44.9440844],[-0.3998954,44.9441565],[-0.400433,44.9443722],[-0.4005288,44.9442968],[-0.4007546,44.9441081],[-0.401211,44.9432004],[-0.4015809,44.9424564],[-0.4019926,44.9416098],[-0.3993793,44.941131],[-0.3989913,44.9413748],[-0.398654,44.9415867],[-0.3979044,44.9420689],[-0.3814471,44.9242264],[-0.3821393,44.9233793],[-0.3988638,44.9173021],[-0.4001097,44.9176235],[-0.4092732,44.9172206],[-0.4092835,44.9172224],[-0.4096647,44.9172875],[-0.4107831,44.9174788],[-0.4124229,44.9177566],[-0.4133528,44.9179269],[-0.4340827,44.9222659],[-0.4350297,44.922676],[-0.4352822,44.9227915],[-0.4354352,44.9228615],[-0.4357061,44.9229852],[-0.4357175,44.9229904],[-0.4364589,44.9233312],[-0.4369428,44.923517],[-0.437568,44.9237622],[-0.4405482,44.9249481],[-0.4406708,44.9249938],[-0.4406904,44.9250011],[-0.4410057,44.9251188],[-0.4410226,44.9251252],[-0.4411209,44.9251619],[-0.4411489,44.9251723],[-0.441217,44.9251977],[-0.4412862,44.9252236],[-0.4412929,44.9252261],[-0.4413376,44.9252424],[-0.4414911,44.9252987],[-0.4418868,44.9254401],[-0.4419,44.9254448],[-0.4420524,44.9254992],[-0.4422255,44.9255603],[-0.4424841,44.9256513],[-0.4447223,44.9264895],[-0.4452198,44.9266704],[-0.445339,44.9267142],[-0.4460014,44.9269566],[-0.4461327,44.9270048],[-0.4468896,44.927284],[-0.4477143,44.9275852],[-0.4484248,44.9278481],[-0.4669403,44.9341658],[-0.4734817,44.9436382],[-0.4746761,44.9442585],[-0.474732,44.9442866],[-0.474958,44.9443854],[-0.4749749,44.9443925],[-0.4750482,44.9444233],[-0.4840953,44.9490799],[-0.4997349,44.9631281],[-0.5010638,44.9647751],[-0.5096535,44.9673054],[-0.5100542,44.967378],[-0.5100672,44.9673785],[-0.5100786,44.9673762],[-0.5101669,44.9673342],[-0.5105036,44.9671692],[-0.5147846,44.9650675],[-0.5161935,44.9628268],[-0.5163187,44.9625677],[-0.516405,44.9623889],[-0.5164316,44.9622933],[-0.5164371,44.9621974]],[[-0.1652779,44.8281291],[-0.1651988,44.8280906],[-0.1652323,44.8281069],[-0.1652779,44.8281291]],[[-0.1653532,44.8281657],[-0.1651923,44.8280875],[-0.1652779,44.8281291],[-0.1653532,44.8281657]]]},"id":"entre-deux-mers"}]}
